NORAD_CAT_ID,OBJECT_NAME,OBJECT_TYPE,EPOCH,MEAN_MOTION,ECCENTRICITY,INCLINATION,RA_OF_ASC_NODE,ARG_OF_PERICENTER,MEAN_ANOMALY,BSTAR,MEAN_MOTION_DOT,MEAN_MOTION_DDOT,TLE_LINE0,TLE_LINE1,TLE_LINE2,SEMIMAJOR_AXIS,PERIOD,APOGEE,PERIGEE,DECAYED
53775.0,STARLINK-4722,PAYLOAD,2024-07-20 20:55:32,15.08826161,0.0001456,53.2176,73.5712,94.4146,265.7013,3.6109e-05,2.87e-06,0.0,0 STARLINK-4722,1 53775U 22111C   24202.87190304  .00000287  00000-0  36109-4 0  9996,2 53775  53.2176  73.5712 0001456  94.4146 265.7013 15.08826161102782,6917.923,95.438,540.795,538.78,0.0
53775.0,STARLINK-4722,PAYLOAD,2024-07-20 22:30:55,15.08829709,0.0001367,53.2175,73.2847,92.296,267.8189,0.00013667,1.887e-05,0.0,0 STARLINK-4722,1 53775U 22111C   24202.93813983  .00001887  00000-0  13667-3 0  9998,2 53775  53.2175  73.2847 0001367  92.2960 267.8189 15.08829709103608,6917.912,95.438,540.723,538.831,0.0
53775.0,STARLINK-4722,PAYLOAD,2024-07-21 01:41:40,15.08843789,0.0001095,53.2167,72.6824,94.4369,265.6748,7.9889e-05,9.84e-06,0.0,0 STARLINK-4722,1 53775U 22111C   24203.07061041  .00000984  00000-0  79889-4 0  9990,2 53775  53.2167  72.6824 0001095  94.4369 265.6748 15.08843789102815,6917.869,95.437,540.491,538.976,0.0
53775.0,STARLINK-4722,PAYLOAD,2024-07-21 20:46:18,15.08834862,0.0001151,53.2166,69.1144,91.9029,268.2095,0.00012882,1.763e-05,0.0,0 STARLINK-4722,1 53775U 22111C   24203.86549685  .00001763  00000-0  12882-3 0  9997,2 53775  53.2166  69.1144 0001151  91.9029 268.2095 15.08834862102937,6917.896,95.438,540.557,538.965,0.0
53775.0,STARLINK-4722,PAYLOAD,2024-07-21 22:21:42,15.0883516,0.0001218,53.2173,68.8178,101.8261,258.2868,0.00014154,1.965e-05,0.0,0 STARLINK-4722,1 53775U 22111C   24203.93173623  .00001965  00000-0  14154-3 0  9998,2 53775  53.2173  68.8178 0001218 101.8261 258.2868 15.08835160103751,6917.895,95.438,540.603,538.918,0.0
53775.0,STARLINK-4722,PAYLOAD,2024-07-22 14:15:34,15.0880375,0.0001351,53.2172,65.8439,96.4617,263.6529,0.00067528,0.00010465,0.0,0 STARLINK-4722,1 53775U 22111C   24204.59414514  .00010465  00000-0  67528-3 0  9996,2 53775  53.2172  65.8439 0001351  96.4617 263.6529 15.08803750103854,6917.991,95.44,540.791,538.922,0.0
53775.0,STARLINK-4722,PAYLOAD,2024-07-22 22:12:28,15.08845066,0.0001175,53.2171,64.357,87.8303,272.2824,8.9663e-05,1.14e-05,0.0,0 STARLINK-4722,1 53775U 22111C   24204.92533191  .00001140  00000-0  89663-4 0  9991,2 53775  53.2171  64.3570 0001175  87.8303 272.2824 15.08845066103909,6917.865,95.437,540.543,538.917,0.0
53775.0,STARLINK-4722,PAYLOAD,2024-07-22 23:47:51,15.08847017,0.0001185,53.217,64.0595,86.7041,273.4086,0.00010394,1.367e-05,0.0,0 STARLINK-4722,1 53775U 22111C   24204.99157013  .00001367  00000-0  10394-3 0  9998,2 53775  53.2170  64.0595 0001185  86.7041 273.4086 15.08847017103103,6917.859,95.437,540.544,538.904,0.0
53775.0,STARLINK-4722,PAYLOAD,2024-07-23 07:44:46,15.08851323,0.0001199,53.2172,62.5722,83.3459,276.7669,0.00015091,2.115e-05,0.0,0 STARLINK-4722,1 53775U 22111C   24205.32276543  .00002115  00000-0  15091-3 0  9997,2 53775  53.2172  62.5722 0001199  83.3459 276.7669 15.08851323103963,6917.846,95.437,540.54,538.881,0.0
53775.0,STARLINK-4722,PAYLOAD,2024-07-23 23:38:40,15.0883049,0.0001788,53.2172,59.599,86.1121,274.0076,-1.9015e-05,-5.91e-06,0.0,0 STARLINK-4722,1 53775U 22111C   24205.98518801 -.00000591  00000-0 -19015-4 0  9994,2 53775  53.2172  59.5990 0001788  86.1121 274.0076 15.08830490103254,6917.909,95.438,541.011,538.538,0.0
53775.0,STARLINK-4722,PAYLOAD,2024-07-24 23:29:26,15.08845818,0.0002168,53.2166,55.1367,88.0332,272.0909,7.2733e-05,8.7e-06,0.0,0 STARLINK-4722,1 53775U 22111C   24206.97877894  .00000870  00000-0  72733-4 0  9998,2 53775  53.2166  55.1367 0002168  88.0332 272.0909 15.08845818103405,6917.863,95.437,541.227,538.228,0.0
53775.0,STARLINK-4722,PAYLOAD,2024-07-25 23:20:13,15.08840422,0.0001468,53.216,50.6839,91.3191,268.7969,6.5727e-05,7.58e-06,0.0,0 STARLINK-4722,1 53775U 22111C   24207.97238092  .00000758  00000-0  65727-4 0  9990,2 53775  53.2160  50.6839 0001468  91.3191 268.7969 15.08840422103555,6917.879,95.438,540.76,538.729,0.0
53775.0,STARLINK-4722,PAYLOAD,2024-07-26 20:00:13,15.08846843,0.0001339,53.2182,46.8111,99.8743,260.24,0.00014768,2.064e-05,0.0,0 STARLINK-4722,1 53775U 22111C   24208.83349205  .00002064  00000-0  14768-3 0  9995,2 53775  53.2182  46.8111 0001339  99.8743 260.2400 15.08846843104496,6917.859,95.437,540.651,538.798,0.0
53775.0,STARLINK-4722,PAYLOAD,2024-07-28 05:23:20,15.088424,0.0001117,53.2178,40.5678,95.825,264.287,-1.0554e-06,-3.05e-06,0.0,0 STARLINK-4722,1 53775U 22111C   24210.22453975 -.00000305  00000-0 -10554-5 0  9990,2 53775  53.2178  40.5678 0001117  95.8250 264.2870 15.08842400103896,6917.873,95.437,540.511,538.965,0.0
53775.0,STARLINK-4722,PAYLOAD,2024-07-28 19:41:49,15.08832017,0.0001473,53.2191,37.8962,97.7097,262.4062,6.8582e-05,8.03e-06,0.0,0 STARLINK-4722,1 53775U 22111C   24210.82070663  .00000803  00000-0  68582-4 0  9999,2 53775  53.2191  37.8962 0001473  97.7097 262.4062 15.08832017103987,6917.905,95.438,540.789,538.751,0.0
53775.0,STARLINK-4722,PAYLOAD,2024-07-28 21:17:12,15.08833241,0.000135,53.2185,37.5946,95.4807,264.6339,8.4792e-05,1.062e-05,0.0,0 STARLINK-4722,1 53775U 22111C   24210.88694586  .00001062  00000-0  84792-4 0  9990,2 53775  53.2185  37.5946 0001350  95.4807 264.6339 15.08833241104800,6917.901,95.438,540.7,538.832,0.0
53775.0,STARLINK-4722,PAYLOAD,2024-07-29 13:11:03,15.08844921,0.0001387,53.2189,34.6244,97.3762,262.7388,3.0992e-05,2.05e-06,0.0,0 STARLINK-4722,1 53775U 22111C   24211.54934547  .00000205  00000-0  30992-4 0  9999,2 53775  53.2189  34.6244 0001387  97.3762 262.7388 15.08844921104905,6917.865,95.437,540.69,538.771,0.0
53775.0,STARLINK-4722,PAYLOAD,2024-07-29 19:32:35,15.08845219,0.000141,53.2191,33.4354,100.5909,259.5242,0.00013605,1.878e-05,0.0,0 STARLINK-4722,1 53775U 22111C   24211.81430114  .00001878  00000-0  13605-3 0  9998,2 53775  53.2191  33.4354 0001410 100.5909 259.5242 15.08845219104133,6917.864,95.437,540.705,538.754,0.0
53775.0,STARLINK-4722,PAYLOAD,2024-07-29 21:07:58,15.0884404,0.00013,53.2186,33.133,97.3185,262.7955,0.00017953,2.571e-05,0.0,0 STARLINK-4722,1 53775U 22111C   24211.88054019  .00002571  00000-0  17953-3 0  9992,2 53775  53.2186  33.1330 0001300  97.3185 262.7955 15.08844040104953,6917.868,95.437,540.632,538.834,0.0
53775.0,STARLINK-4722,PAYLOAD,2024-07-30 05:04:53,15.08858085,0.0001359,53.2177,31.646,81.8078,278.3068,0.00024459,3.609e-05,0.0,0 STARLINK-4722,1 53775U 22111C   24212.21172974  .00003609  00000-0  24459-3 0  9993,2 53775  53.2177  31.6460 0001359  81.8078 278.3068 15.08858085104191,6917.825,95.436,540.63,538.75,0.0
53775.0,STARLINK-4722,PAYLOAD,2024-07-31 04:55:41,15.08845837,0.000196,53.2185,27.1851,92.1575,267.9642,0.00013368,1.84e-05,0.0,0 STARLINK-4722,1 53775U 22111C   24213.20534249  .00001840  00000-0  13368-3 0  9992,2 53775  53.2185  27.1851 0001960  92.1575 267.9642 15.08845837105159,6917.863,95.437,541.083,538.372,0.0
53775.0,STARLINK-4722,PAYLOAD,2024-07-31 20:49:32,15.08838379,0.0001277,53.2166,24.2107,100.8345,259.2791,-2.9747e-05,-7.61e-06,0.0,0 STARLINK-4722,1 53775U 22111C   24213.86774198 -.00000761  00000-0 -29747-4 0  9995,2 53775  53.2166  24.2107 0001277 100.8345 259.2791 15.08838379105256,6917.885,95.438,540.634,538.867,0.0
53775.0,STARLINK-4722,PAYLOAD,2024-08-01 11:07:59,15.08876543,8.48e-05,53.2168,21.5339,81.0323,279.0765,-0.00078073,-0.00012704,0.0,0 STARLINK-4722,1 53775U 22111C   24214.46387802 -.00012704  00000-0 -78073-3 0  9999,2 53775  53.2168  21.5339 0000848  81.0323 279.0765 15.08876543104530,6917.769,95.435,540.22,539.047,0.0
53775.0,STARLINK-4722,PAYLOAD,2024-08-01 20:40:19,15.08854495,0.0001307,53.2162,19.7504,99.6896,260.4243,0.0007622,0.00011868,0.0,0 STARLINK-4722,1 53775U 22111C   24214.86134000  .00011868  00000-0  76220-3 0  9993,2 53775  53.2162  19.7504 0001307  99.6896 260.4243 15.08854495104591,6917.836,95.437,540.605,538.797,0.0
53775.0,STARLINK-4722,PAYLOAD,2024-08-02 14:09:34,15.0883333,0.0001658,53.2162,16.4798,106.3944,253.7231,-0.00016102,-2.849e-05,0.0,0 STARLINK-4722,1 53775U 22111C   24215.58998516 -.00002849  00000-0 -16102-3 0  9997,2 53775  53.2162  16.4798 0001658 106.3944 253.7231 15.08833330105519,6917.901,95.438,540.913,538.619,0.0
53775.0,STARLINK-4722,PAYLOAD,2024-08-02 17:20:20,15.08828074,0.0001538,53.2171,15.8858,99.3928,260.7238,-0.000197,-3.421e-05,0.0,0 STARLINK-4722,1 53775U 22111C   24215.72246476 -.00003421  00000-0 -19700-3 0  9998,2 53775  53.2171  15.8858 0001538  99.3928 260.7238 15.08828074104725,6917.917,95.438,540.846,538.718,0.0
53775.0,STARLINK-4722,PAYLOAD,2024-08-03 14:00:22,15.08847587,0.0001589,53.2182,12.0214,95.0438,265.0736,0.0012091,0.00019011,0.0,0 STARLINK-4722,1 53775U 22111C   24216.58359223  .00019011  00000-0  12091-2 0  9993,2 53775  53.2182  12.0214 0001589  95.0438 265.0736 15.08847587105662,6917.857,95.437,540.821,538.623,0.0
53775.0,STARLINK-4722,PAYLOAD,2024-08-03 17:11:08,15.08852786,0.000146,53.218,11.4292,88.5947,271.5212,0.0012349,0.00019427,0.0,0 STARLINK-4722,1 53775U 22111C   24216.71607178  .00019427  00000-0  12349-2 0  9990,2 53775  53.2180  11.4292 0001460  88.5947 271.5212 15.08852786104879,6917.841,95.437,540.716,538.696,0.0
53775.0,STARLINK-4722,PAYLOAD,2024-08-04 10:40:22,15.08864467,0.0001519,53.2177,8.1546,83.3535,276.763,0.0010288,0.00016134,0.0,0 STARLINK-4722,1 53775U 22111C   24217.44470781  .00016134  00000-0  10288-2 0  9991,2 53775  53.2177   8.1546 0001519  83.3535 276.7630 15.08864467104983,6917.806,95.436,540.721,538.62,0.0
53775.0,STARLINK-4722,PAYLOAD,2024-08-04 13:51:08,15.08849326,0.0001426,53.2182,7.5636,92.5802,267.5354,0.00036252,5.488e-05,0.0,0 STARLINK-4722,1 53775U 22111C   24217.57718690  .00005488  00000-0  36252-3 0  9999,2 53775  53.2182   7.5636 0001426  92.5802 267.5354 15.08849326105819,6917.852,95.437,540.703,538.73,0.0
